MOLNIYA 2-9             
1 07276U 74026A   25064.65527731 -.00000013  00000+0  00000+0 0  9997
2 07276  64.3380  91.2795 6549351 267.8326  21.7205  2.45097459273530
MOLNIYA 2-10            
1 07376U 74056A   25064.82236165 -.00000384  00000+0  00000+0 0  9999
2 07376  65.3798 348.8135 6831712 275.7435  16.3440  2.01207022370314
MOLNIYA 1-S             
1 07392U 74060A   25066.90896042  .00000118  00000+0  00000+0 0  9993
2 07392   2.5650 265.1948 0008020 255.8752  18.6928  1.00233525129490
MOLNIYA 1-29            
1 07780U 75036A   25064.18445418  .00000214  00000+0 -28059-2 0  9998
2 07780  63.6079 112.6904 6761829 282.0202  14.7146  2.00625338365515
MOLNIYA 2-14            
1 08195U 75081A   25065.33443727  .00000580  00000+0  00000+0 0  9996
2 08195  63.9666  84.7092 6763867 287.0601  13.2011  2.02056667362955
MOLNIYA 1-32            
1 08601U 76006A   25065.40171153  .00000853  00000+0  00000+0 0  9998
2 08601  63.6264 181.6756 6734505 280.1447  15.4751  1.99961571 72521
MOLNIYA 1-36            
1 09880U 77021A   25065.38097156  .00001191  00000+0  00000+0 0  9999
2 09880  63.4989 157.5451 6694677 285.0104  14.2634  2.00401867249282
MOLNIYA 3-8             
1 10455U 77105A   25065.00483561  .00000381  00000+0  00000+0 0  9990
2 10455  63.7853 225.1529 6896752 280.7407  14.0997  2.00803109347058
MOLNIYA 1-40            
1 10925U 78055A   25064.63410972  .00000291  00000+0  00000+0 0  9991
2 10925  64.0024 273.5124 7020831 278.2313  14.0295  2.00716180342584
MOLNIYA 3-10            
1 11057U 78095A   25065.04836172  .00000199  00000+0  48731-2 0  9995
2 11057  63.5134  45.6734 5617146 314.7991  11.3145  4.09913205424414
MOLNIYA 3-13            
1 11896U 80063A   25064.84012895 -.00000326  00000+0 -13128-2 0  9995
2 11896  63.6478 356.6507 7331226 278.2427  12.0599  2.00678252327009
MOLNIYA 1-52            
1 13012U 81123A   25065.67780712 -.00001001  00000+0 -24757-3 0  9999
2 13012  61.4628 140.6163 7241955 267.9721  15.6953  2.00463377316500
MOLNIYA 1-53            
1 13070U 82015A   25065.22320803  .00001387  00000+0  64676-1 0  9993
2 13070  62.9650  96.8525 7006846 283.6759  12.6142  2.00748169315177
MOLNIYA 3-20            
1 13875U 83015A   25062.50363432  .00001401  00000+0  25042-1 0  9991
2 13875  61.9551 206.5757 7100078 268.4076  16.6743  2.00471310243577
MOLNIYA 1-63            
1 15429U 84124A   25065.52473891  .00000957  00000+0  00000+0 0  9996
2 15429  63.4200  55.9410 7175334 256.3455 349.9259  2.00387872294678
MOLNIYA 3-24            
1 15738U 85040A   25062.59790547  .00000168  00000+0  65711-3 0  9999
2 15738  62.4681 246.1685 6868346 252.3701  26.5923  2.55665903329187
MOLNIYA 3-27            
1 16393U 85117A   25060.92605789  .00000006  00000+0  00000+0 0  9997
2 16393  62.7131 297.3498 7170684 247.0871  26.3709  2.12403418295174
MOLNIYA 3-31            
1 17328U 87008A   25064.80208532 -.00000469  00000+0 -21713-3 0  9996
2 17328  62.8786 347.7998 7428650 254.8169  19.2792  2.00698930275779
MOLNIYA 1-71            
1 18946U 88017A   25066.11229363 -.00000928  00000+0  84785-3 0  9992
2 18946  62.5208 332.1056 7469919 260.7042  16.3939  2.00715681271033
MOLNIYA 1-75            
1 19807U 89014A   25058.22306090 -.00000694  00000+0  00000+0 0  9997
2 19807  63.8001 186.2426 6628075 259.4913  25.1023  2.00428770263768
MOLNIYA 1-80            
1 21118U 91012A   25061.71673404  .00000970  00000+0  00000+0 0  9996
2 21118  64.9395 235.2614 6383642 263.7716  25.1917  2.05234758251287
MOLNIYA 3-40            
1 21196U 91022A   25065.88847351 -.00000749  00000+0  00000+0 0  9994
2 21196  64.7498 229.0839 6432451 261.0662  26.1860  2.03012105249855
MOLNIYA 1-81            
1 21426U 91043A   25064.49781049  .00000230  00000+0  00000+0 0  9994
2 21426  63.4668 227.7742 6769984 261.5454  22.5690  2.00616016247040
MOLNIYA 3-41            
1 21706U 91065A   25061.37564931 -.00001316  00000+0 -10557-3 0  9992
2 21706  63.6600  37.1950 7359295 250.9233  22.0392  2.04370487247071
MOLNIYA 3-42            
1 22178U 92067A   25064.92099871 -.00000057  00000+0  00000+0 0  9997
2 22178  64.6133 106.7070 6759240 251.9628  28.1372  2.20434093101936
MOLNIYA 1-86            
1 22671U 93035A   25066.76791945  .00001872  00000+0  15645-2 0  9995
2 22671  63.0531  15.0243 4888891  23.9538 352.6567  5.64088191408243
MOLNIYA 1-87            
1 22949U 93079A   25065.82819446 -.00000060  00000+0  00000+0 0  9999
2 22949  65.0194 335.3182 6943634 275.0109  15.7390  2.02879654 95087
MOLNIYA 1-88            
1 23420U 94081A   25065.03673322 -.00000021  00000+0  00000+0 0  9999
2 23420  64.4113 332.0872 5907686 265.3483  29.1300  3.34492227146900
MOLNIYA 3-47            
1 23642U 95042A   25066.07412234 -.00000786  00000+0  00000+0 0  9999
2 23642  65.0183 318.2077 6893751 275.0544  16.0782  2.01934861217172
MOLNIYA 1-90            
1 24960U 97054A   25064.91420709  .00000019  00000+0  21841-2 0  9992
2 24960  64.3765 301.0592 6044790 287.9171  17.6554  3.18686883239631
MOLNIYA 1-91            
1 25485U 98054A   25066.72477681 -.00000082  00000+0  00000+0 0  9990
2 25485  64.4012 354.3801 6804840 288.4431  12.6931  2.36443770202548
MOLNIYA 3-50            
1 25847U 99036A   25066.43377509  .00000242  00000+0 -57173-1 0  9992
2 25847  63.5121 204.0095 6858433 280.8097  14.3650  2.00634868188055
